[{"OBJECT_NAME":"SDA_1665","OBJECT_ID":"2025-230B","EPOCH":"2026-03-09T22:47:20.541984","MEAN_MOTION":13.85178901,"ECCENTRICITY":0.00037609,"INCLINATION":81.3004,"RA_OF_ASC_NODE":303.6398,"ARG_OF_PERICENTER":117.7881,"MEAN_ANOMALY":242.3658,"EPHEMERIS_TYPE":0,"CLASSIFICATION_TYPE":"U","NORAD_CAT_ID":65975,"ELEMENT_SET_NO":999,"REV_AT_EPOCH":2008,"BSTAR":-0.026076654,"MEAN_MOTION_DOT":-0.00029429,"MEAN_MOTION_DDOT":0},{"OBJECT_NAME":"METEOR 2-17","OBJECT_ID":"1988-005A","EPOCH":"2026-03-09T23:09:23.004576","MEAN_MOTION":13.85650765,"ECCENTRICITY":0.00165905,"INCLINATION":82.5418,"RA_OF_ASC_NODE":42.7169,"ARG_OF_PERICENTER":3.737,"MEAN_ANOMALY":50.36,"EPHEMERIS_TYPE":0,"CLASSIFICATION_TYPE":"U","NORAD_CAT_ID":18820,"ELEMENT_SET_NO":999,"REV_AT_EPOCH":92644,"BSTAR":6.3165095e-5,"MEAN_MOTION_DOT":8.7e-7,"MEAN_MOTION_DDOT":0}]
